NORAD_CAT_ID,OBJECT_NAME,OBJECT_TYPE,EPOCH,MEAN_MOTION,ECCENTRICITY,INCLINATION,RA_OF_ASC_NODE,ARG_OF_PERICENTER,MEAN_ANOMALY,BSTAR,MEAN_MOTION_DOT,MEAN_MOTION_DDOT,TLE_LINE0,TLE_LINE1,TLE_LINE2,SEMIMAJOR_AXIS,PERIOD,APOGEE,PERIGEE,DECAYED
53435.0,STARLINK-4542,PAYLOAD,2023-12-10 21:11:24,15.08840599,0.0001406,53.2152,184.1766,89.6421,270.4732,9.4778e-05,1.221e-05,0.0,0 STARLINK-4542,1 53435U 22097AZ  23344.88291789  .00001221  00000-0  94778-4 0  9993,2 53435  53.2152 184.1766 0001406  89.6421 270.4732 15.08840599 75000,6917.879,95.438,540.716,538.771,0.0
53435.0,STARLINK-4542,PAYLOAD,2023-12-11 19:26:47,15.08844765,0.000142,53.2152,180.0135,88.3314,271.784,0.00010035,1.31e-05,0.0,0 STARLINK-4542,1 53435U 22097AZ  23345.81027506  .00001310  00000-0  10035-3 0  9993,2 53435  53.2152 180.0135 0001420  88.3314 271.7840 15.08844765 75146,6917.866,95.437,540.713,538.748,0.0
53435.0,STARLINK-4542,PAYLOAD,2023-12-12 19:17:34,15.08841866,0.0001392,53.215,175.5526,88.9237,271.1915,5.4049e-05,5.72e-06,0.0,0 STARLINK-4542,1 53435U 22097AZ  23346.80387672  .00000572  00000-0  54049-4 0  9999,2 53435  53.2150 175.5526 0001392  88.9237 271.1915 15.08841866 74836,6917.875,95.437,540.703,538.777,0.0
53435.0,STARLINK-4542,PAYLOAD,2023-12-13 19:08:21,15.08841776,0.0001421,53.2153,171.0931,103.3416,256.7734,6.1015e-05,6.83e-06,0.0,0 STARLINK-4542,1 53435U 22097AZ  23347.79747473  .00000683  00000-0  61015-4 0  9991,2 53435  53.2153 171.0931 0001421 103.3416 256.7734 15.08841776 75440,6917.875,95.437,540.723,538.757,0.0
53435.0,STARLINK-4542,PAYLOAD,2023-12-14 18:59:09,15.08838085,0.0001344,53.2154,166.6314,93.6075,266.5071,5.1779e-05,5.36e-06,0.0,0 STARLINK-4542,1 53435U 22097AZ  23348.79107864  .00000536  00000-0  51779-4 0  9999,2 53435  53.2154 166.6314 0001344  93.6075 266.5071 15.08838085 75130,6917.886,95.438,540.681,538.821,0.0
53435.0,STARLINK-4542,PAYLOAD,2023-12-15 18:49:56,15.08836663,0.0001328,53.2157,162.17,97.2835,262.8308,3.102e-05,2.06e-06,0.0,0 STARLINK-4542,1 53435U 22097AZ  23349.78468164  .00000206  00000-0  31020-4 0  9993,2 53435  53.2157 162.1700 0001328  97.2835 262.8308 15.08836663 75748,6917.891,95.438,540.674,538.837,0.0
53435.0,STARLINK-4542,PAYLOAD,2023-12-16 18:40:43,15.0883668,0.0001293,53.2161,157.7092,93.006,267.108,5.7745e-05,6.31e-06,0.0,0 STARLINK-4542,1 53435U 22097AZ  23350.77828444  .00000631  00000-0  57745-4 0  9999,2 53435  53.2161 157.7092 0001293  93.0060 267.1080 15.08836680 75432,6917.891,95.438,540.65,538.861,0.0
53435.0,STARLINK-4542,PAYLOAD,2023-12-17 18:31:30,15.08844505,0.0001301,53.2165,153.2483,86.4055,273.7086,0.00012196,1.654e-05,0.0,0 STARLINK-4542,1 53435U 22097AZ  23351.77187961  .00001654  00000-0  12196-3 0  9998,2 53435  53.2165 153.2483 0001301  86.4055 273.7086 15.08844505 75581,6917.867,95.437,540.632,538.832,0.0
53435.0,STARLINK-4542,PAYLOAD,2023-12-18 18:22:17,15.0884865,0.0001442,53.2168,148.7896,77.9538,282.1616,0.00014737,2.059e-05,0.0,0 STARLINK-4542,1 53435U 22097AZ  23352.76547600  .00002059  00000-0  14737-3 0  9991,2 53435  53.2168 148.7896 0001442  77.9538 282.1616 15.08848650 76194,6917.854,95.437,540.717,538.721,0.0
53435.0,STARLINK-4542,PAYLOAD,2023-12-19 16:37:41,15.0884189,0.0001367,53.2154,144.6302,86.7147,273.4001,2.923e-05,1.77e-06,0.0,0 STARLINK-4542,1 53435U 22097AZ  23353.69284060  .00000177  00000-0  29230-4 0  9996,2 53435  53.2154 144.6302 0001367  86.7147 273.4001 15.08841890 75870,6917.875,95.437,540.685,538.794,0.0
53435.0,STARLINK-4542,PAYLOAD,2023-12-20 13:17:42,15.08836169,0.0001465,53.2157,140.7649,77.267,282.8486,-4.7168e-05,-1.038e-05,0.0,0 STARLINK-4542,1 53435U 22097AZ  23354.55396668 -.00001038  00000-0 -47168-4 0  9999,2 53435  53.2157 140.7649 0001465  77.2670 282.8486 15.08836169 76469,6917.892,95.438,540.771,538.744,0.0
53435.0,STARLINK-4542,PAYLOAD,2023-12-20 16:28:28,15.08845307,0.0001442,53.2173,140.1652,82.6665,277.4491,-0.00011755,-2.159e-05,0.0,0 STARLINK-4542,1 53435U 22097AZ  23354.68644527 -.00002159  00000-0 -11755-3 0  9990,2 53435  53.2173 140.1652 0001442  82.6665 277.4491 15.08845307 76486,6917.864,95.437,540.727,538.732,0.0
53435.0,STARLINK-4542,PAYLOAD,2023-12-21 14:43:52,15.08842866,0.0001263,53.2167,136.0027,74.0823,286.0308,4.5656e-05,4.39e-06,0.0,0 STARLINK-4542,1 53435U 22097AZ  23355.61380462  .00000439  00000-0  45656-4 0  9994,2 53435  53.2167 136.0027 0001263  74.0823 286.0308 15.08842866 76627,6917.872,95.437,540.61,538.863,0.0
53435.0,STARLINK-4542,PAYLOAD,2023-12-21 16:19:15,15.08844342,0.0001377,53.2174,135.7021,77.6792,282.4355,7.4998e-05,9.06e-06,0.0,0 STARLINK-4542,1 53435U 22097AZ  23355.68004271  .00000906  00000-0  74998-4 0  9992,2 53435  53.2174 135.7021 0001377  77.6792 282.4355 15.08844342 76639,6917.867,95.437,540.685,538.78,0.0
53435.0,STARLINK-4542,PAYLOAD,2023-12-22 14:34:39,15.08844257,0.000133,53.2155,131.5421,76.8972,283.2168,0.00012033,1.628e-05,0.0,0 STARLINK-4542,1 53435U 22097AZ  23356.60740485  .00001628  00000-0  12033-3 0  9992,2 53435  53.2155 131.5421 0001330  76.8972 283.2168 15.08844257 76777,6917.867,95.437,540.652,538.812,0.0
53435.0,STARLINK-4542,PAYLOAD,2023-12-23 09:39:17,15.08839329,0.0001359,53.2157,127.9743,70.5188,289.5951,-0.00010726,-1.995e-05,0.0,0 STARLINK-4542,1 53435U 22097AZ  23357.40228815 -.00001995  00000-0 -10726-3 0  9995,2 53435  53.2157 127.9743 0001359  70.5188 289.5951 15.08839329 76432,6917.882,95.438,540.688,538.807,0.0
53435.0,STARLINK-4542,PAYLOAD,2023-12-23 14:25:27,15.08839022,0.0001211,53.2167,127.0815,86.1909,273.9222,8.8093e-06,-1.48e-06,0.0,0 STARLINK-4542,1 53435U 22097AZ  23357.60101098 -.00000148  00000-0  88093-5 0  9992,2 53435  53.2167 127.0815 0001211  86.1909 273.9222 15.08839022 76927,6917.883,95.438,540.586,538.911,0.0
53435.0,STARLINK-4542,PAYLOAD,2023-12-23 16:00:50,15.08840657,0.0001212,53.2167,126.7836,85.713,274.4001,1.1309e-05,-1.08e-06,0.0,0 STARLINK-4542,1 53435U 22097AZ  23357.66724961 -.00000108  00000-0  11309-4 0  9999,2 53435  53.2167 126.7836 0001212  85.7130 274.4001 15.08840657 76936,6917.878,95.438,540.582,538.905,0.0
53435.0,STARLINK-4542,PAYLOAD,2023-12-24 14:16:13,15.08860046,0.000119,53.2169,122.6199,95.5598,264.553,-0.00014757,-2.637e-05,0.0,0 STARLINK-4542,1 53435U 22097AZ  23358.59460283 -.00002637  00000-0 -14757-3 0  9995,2 53435  53.2169 122.6199 0001190  95.5598 264.5530 15.08860046 77074,6917.819,95.436,540.507,538.861,0.0
53435.0,STARLINK-4542,PAYLOAD,2023-12-24 15:51:36,15.08857257,0.0001233,53.217,122.3225,89.3598,270.7535,-1.7269e-05,-5.63e-06,0.0,0 STARLINK-4542,1 53435U 22097AZ  23358.66084087 -.00000563  00000-0 -17269-4 0  9995,2 53435  53.2170 122.3225 0001233  89.3598 270.7535 15.08857257 76626,6917.828,95.436,540.546,538.84,0.0
53435.0,STARLINK-4542,PAYLOAD,2023-12-25 12:31:38,15.08837846,0.0001626,53.2179,118.461,66.1413,293.975,0.00010208,1.337e-05,0.0,0 STARLINK-4542,1 53435U 22097AZ  23359.52197370  .00001337  00000-0  10208-3 0  9994,2 53435  53.2179 118.4610 0001626  66.1413 293.9750 15.08837846 76756,6917.887,95.438,540.877,538.627,0.0
53435.0,STARLINK-4542,PAYLOAD,2023-12-25 14:07:01,15.08838086,0.0001589,53.2178,118.1635,70.9447,289.1717,9.6972e-05,1.256e-05,0.0,0 STARLINK-4542,1 53435U 22097AZ  23359.58821340  .00001256  00000-0  96972-4 0  9994,2 53435  53.2178 118.1635 0001589  70.9447 289.1717 15.08838086 77227,6917.886,95.438,540.85,538.652,0.0
53435.0,STARLINK-4542,PAYLOAD,2023-12-25 15:42:24,15.08845115,0.0001776,53.2184,117.8662,71.2208,288.8976,4.3324e-05,4.02e-06,0.0,0 STARLINK-4542,1 53435U 22097AZ  23359.65445036  .00000402  00000-0  43324-4 0  9991,2 53435  53.2184 117.8662 0001776  71.2208 288.8976 15.08845115 77232,6917.865,95.437,540.958,538.501,0.0
53435.0,STARLINK-4542,PAYLOAD,2023-12-26 13:57:48,15.08840641,0.0001535,53.2178,113.7039,76.5489,283.5674,-1.3185e-05,-4.98e-06,0.0,0 STARLINK-4542,1 53435U 22097AZ  23360.58181560 -.00000498  00000-0 -13185-4 0  9993,2 53435  53.2178 113.7039 0001535  76.5489 283.5674 15.08840641 77371,6917.878,95.438,540.805,538.682,0.0
53435.0,STARLINK-4542,PAYLOAD,2023-12-26 15:33:12,15.08839884,0.0001439,53.217,113.4063,79.4696,280.6458,-2.8236e-05,-7.37e-06,0.0,0 STARLINK-4542,1 53435U 22097AZ  23360.64805599 -.00000737  00000-0 -28236-4 0  9994,2 53435  53.2170 113.4063 0001439  79.4696 280.6458 15.08839884 76927,6917.881,95.438,540.741,538.75,0.0
53435.0,STARLINK-4542,PAYLOAD,2023-12-27 13:48:35,15.08846705,0.0001647,53.2183,109.2443,65.5926,294.5238,7.2017e-05,8.58e-06,0.0,0 STARLINK-4542,1 53435U 22097AZ  23361.57541189  .00000858  00000-0  72017-4 0  9997,2 53435  53.2183 109.2443 0001647  65.5926 294.5238 15.08846705 77526,6917.86,95.437,540.864,538.586,0.0
53435.0,STARLINK-4542,PAYLOAD,2023-12-28 12:04:00,15.0883462,0.0001703,53.2184,105.0816,57.4457,302.6699,4.4206e-05,4.15e-06,0.0,0 STARLINK-4542,1 53435U 22097AZ  23362.50278362  .00000415  00000-0  44206-4 0  9999,2 53435  53.2184 105.0816 0001703  57.4457 302.6699 15.08834620 77207,6917.897,95.438,540.94,538.584,0.0
53435.0,STARLINK-4542,PAYLOAD,2023-12-28 13:39:23,15.08836264,0.000154,53.2182,104.7838,69.0073,291.1084,5.4359e-05,5.77e-06,0.0,0 STARLINK-4542,1 53435U 22097AZ  23362.56902173  .00000577  00000-0  54359-4 0  9998,2 53435  53.2182 104.7838 0001540  69.0073 291.1084 15.08836264 77674,6917.892,95.438,540.822,538.691,0.0
53435.0,STARLINK-4542,PAYLOAD,2023-12-29 11:54:46,15.08848308,0.000126,53.2172,100.6185,75.0112,285.102,8.0475e-05,9.93e-06,0.0,0 STARLINK-4542,1 53435U 22097AZ  23363.49637284  .00000993  00000-0  80475-4 0  9999,2 53435  53.2172 100.6185 0001260  75.0112 285.1020 15.08848308 77353,6917.855,95.437,540.592,538.848,0.0
53435.0,STARLINK-4542,PAYLOAD,2023-12-30 11:45:36,15.08817799,0.0001426,53.2156,96.1541,129.5385,230.5733,-9.6759e-05,-1.827e-05,0.0,0 STARLINK-4542,1 53435U 22097AZ  23364.49000292 -.00001827  00000-0 -96759-4 0  9994,2 53435  53.2156  96.1541 0001426 129.5385 230.5733 15.08817799 77503,6917.948,95.439,540.8,538.827,0.0
